stk.v.4.3

BEGIN Ephemeris

NumberOfEphemerisPoints   1446

ScenarioEpoch           22 Feb 2005 21:15:59.638752
InterpolationMethod     Lagrange
InterpolationOrder      7
CentralBody             Earth
CoordinateSystem        Custom Topo Facility/Algonquin

EphemerisTimePosVel

4920.0 -22121617.2553246 8677453.365899077 5583144.21342333 1669.2606290611288 1018.9811845022369 2290.314181553567 
4980.0 -22011233.3201706 8671002.965771439 5787422.3597381525 1686.542696121889 1002.245599410147 2280.547672833292 
5040.0 -21899183.09824061 8663881.289291864 5990740.017800869 1703.6991712120898 985.4329303622648 2270.604664641994 
5100.0 -21785475.55709362 8656089.007376406 6193081.842388406 1720.7287401952 968.5444867779561 2260.485896459885 
5160.0 -21670119.78718502 8647626.842260975 6394432.5700472975 1737.63009827942 951.5815837124259 2250.1921213843953 
5220.0 -21553125.00105432 8638495.567401169 6594777.020193762 1754.4019501182 934.5455417500326 2239.724106078683 
5280.0 -21434500.5325053 8628696.007368367 6794100.096204401 1771.0430099100709 917.437686897297 2229.082630719089 
5340.0 -21314255.83577788 8618229.037741799 6992386.7864991985 1787.552001497933 900.259350475537 2218.268488941451 
5400.0 -21192400.484712407 8607095.584997358 7189622.165614958 1803.9276584676488 883.0118690131508 2207.282487786415 
5460.0 -21068944.17190589 8595296.626391983 7385791.395271126 1820.16872424608 865.6965841375892 2196.125447643556 
5520.0 -20943896.707860857 8582833.189844772 7580879.725426309 1836.273952198443 848.3148424670047 2184.79820219449 
5580.0 -20817268.020126563 8569706.35381427 7774872.495326141 1852.2421057250301 830.8679955015739 2173.3015983548758 
5640.0 -20689068.152432702 8555917.247171937 7967755.134542466 1868.071958357283 813.3573995145503 2161.6364962153457 
5700.0 -20559307.26381574 8541467.049072156 8159513.164003763 1883.7622938532131 795.7844154429703 2149.8037689813414 
5760.0 -20427995.62773805 8526356.98881832 8350132.197016488 1899.3119062921471 778.1504087781531 2137.8043029119 
5820.0 -20295143.63120002 8510588.345725833 8539597.940277118 1914.7196001687569 760.4567494558554 2125.638997257396 
5880.0 -20160761.77384461 8494162.44898062 8727896.19487651 1929.984190486524 742.7048117462211 2113.308764196106 
5940.0 -20024860.66705552 8477080.677495133 8915012.85729332 1945.104502850349 724.8959741434336 2100.814528769869 
6000.0 -19887451.03304811 8459344.459760005 9100933.920380026 1960.079373558605 707.0316192551527 2088.157228818552 
6060.0 -19748543.70395363 8440955.27369247 9285645.474338828 1974.907649694406 689.1131336917199 2075.3378149135287 
6120.0 -19608149.62089686 8421914.646481363 9469133.707688663 1989.5881892161772 671.1419079551305 2062.35725029009 
6180.0 -19466279.833066978 8402224.154428449 9651384.908223175 2004.119861047528 653.1193363277936 2049.216510778785 
6240.0 -19322945.496782072 8381885.422786392 9832385.463959297 2018.501545166366 635.0468167610961 2035.916584735733 
6300.0 -19178157.874547333 8360900.125593549 10012121.86407606 2032.732132693268 616.9257507637631 2022.4584729719268 
6360.0 -19031928.33410672 8339269.9855049215 10190580.699845029 2046.8105259791512 598.7575432900276 2008.843188681424 
6420.0 -18884268.34748868 8316996.7736200085 10367748.6655505 2060.735638692137 580.5436026276702 1995.071757368562 
6480.0 -18735189.4900455 8294082.309307236 10543612.559400821 2074.5063959036993 562.2853402858332 1981.145216774115 
6540.0 -18584703.43948694 8270528.460025142 10718159.28442993 2088.121734174013 543.9841708827224 1967.064616800448 
6600.0 -18432821.97490771 8246337.141140164 10891375.84938954 2101.5806016365464 525.6415120331434 1952.831019435629 
6660.0 -18279556.97580928 8221510.315741243 11063249.3696319 2114.881958081863 507.25878423591485 1938.4454986765309 
6720.0 -18124920.42111586 8196049.994450936 11233767.067983009 2128.0247750406497 488.8374107611671 1923.909140450912 
6780.0 -17968924.3881849 8169958.235233866 11402916.27560586 2141.008035865906 470.3788175374661 1909.223042538518 
6840.0 -17811581.051811922 8143237.143201362 11570684.43285461 2153.8307358143747 451.8844330389099 1894.388314491153 
6900.0 -17652902.68322999 8115888.87041327 11737059.09011885 2166.491882127138 433.3556881720806 1879.4060775517569 
6960.0 -17492901.64910385 8087915.61567657 11902027.90865816 2178.99049410939 414.7940161629191 1864.2774645725 
7020.0 -17331590.4105188 8059319.624340868 12065578.66142706 2191.325603209389 396.20085244352 1849.003619931888 
7080.0 -17168981.521964338 8030103.188090759 12227699.23389034 2203.496253096587 377.5776345388545 1833.585699450865 
7140.0 -17005087.63031285 8000268.644735061 12388377.62482852 2215.5014997389003 358.92580195347614 1818.0248703079528 
7200.0 -16839921.47379341 7969818.37799339 12547601.94713337 2227.340411479121 340.2467960580804 1802.3223109534501 
7260.0 -16673495.88096059 7938754.817279224 12705360.42859394 2239.0120691105053 321.5420599761434 1786.479211022614 
7320.0 -16505823.7696584 7907080.437480309 12861641.41267275 2250.515565951473 302.81303847042653 1770.496771247895 
7380.0 -16336918.145979669 7874797.75873589 13016433.359272119 2261.850007919461 284.06117782954374 1754.3762033702199 
7440.0 -16166792.10322107 7841909.346211373 13169724.845490249 2273.01451360385 265.2879257544403 1738.118730049367 
7500.0 -15995458.820833242 7808417.809869679 13321504.56636801 2284.008214338066 246.4947312449438 1721.725584773328 
7560.0 -15822931.5633666 7774325.804239939 13471761.33562568 2294.830254270753 227.683044486244 1705.198011766766 
7620.0 -15649223.67941293 7739636.028183238 13620484.08638961 2305.479790436077 208.85431673546358 1688.537265898543 
7680.0 -15474348.60054302 7704351.224655767 13767661.87190885 2315.955992823067 190.0100002082072 1671.74461258835 
7740.0 -15298319.84023946 7668474.180468847 13913283.86626243 2326.258044444125 171.15154796514128 1654.821327712345 
7800.0 -15121150.99282614 7632007.726046473 14057339.36505594 2336.385141402541 152.2804137986507 1637.768697507966 
7860.0 -14942855.73239328 7594954.735179927 14199817.78610876 2346.336492959139 133.3980521195139 1620.588018477766 
7920.0 -14763447.811719019 7557318.124779808 14340708.6701308 2356.111321597949 114.5059178436743 1603.280597292415 
7980.0 -14582941.06118666 7519100.854625143 14480001.68138991 2365.7088630909802 95.60546627905741 1585.847750692722 
8040.0 -14401349.38769906 7480305.927110396 14617686.60836832 2375.12836656199 76.69815301244165 1568.290805390898 
8100.0 -14218686.77358845 7440936.386988965 14753753.36441025 2384.369094549385 57.785433796507014 1550.611097970797 
8160.0 -14034967.27552365 7400995.321115025 14888191.98835838 2393.430323068064 38.86876443685827 1532.809974787412 
8220.0 -13850205.02341334 7360485.858182091 15020992.645181041 2402.3113416703777 19.94960067925977 1514.88879186544 
8280.0 -13664414.21930602 7319411.168459326 15152145.62658914 2411.0114535060793 1.029398096928591 1496.848914796984 
8340.0 -13477609.13628707 7277774.4635253 15281641.35164292 2419.529975381288 -17.890388022016808 1478.691718638454 
8400.0 -13289804.11737223 7235578.995999239 15409470.367348889 2427.8662378165 -36.80830278702174 1460.4185878065862 
8460.0 -13101013.57439822 7192828.05926975 15535623.34924657 2436.019585103581 -55.722891817372 1442.030915973634 
8520.0 -12911251.98691059 7149524.9872212205 15660091.101985158 2443.98937536177 -74.63270135433642 1423.530105961769 
8580.0 -12720533.90104814 7105673.15395759 15782864.55989033 2451.774980592689 -93.53627837313527 1404.917569636587 
8640.0 -12528873.92842505 7061275.973524062 15903934.787520621 2459.375786734327 -112.4321706948106 1386.194727799907 
8700.0 -12336286.745009908 7016336.899626097 16023292.980214221 2466.79119371402 -131.31892709783162 1367.3630100816629 
8760.0 -12142787.09000261 6970859.4253463745 16140930.464625109 2474.020615500402 -150.1950974295373 1348.423854831105 
8820.0 -11948389.76470785 6924847.0828591855 16256838.6992498 2481.0634801543392 -169.0592327174633 1329.3787090071069 
8880.0 -11753109.63140686 6878303.443142639 16371009.27494355 2487.9192298788403 -187.9098852803339 1310.229028067767 
8940.0 -11556961.612226712 6831232.115688841 16483433.9154265 2494.587321067868 -206.7456088389763 1290.9762758592449 
9000.0 -11359960.68800666 6783636.748211331 16594104.47778014 2501.067224354216 -225.5649586269273 1271.621924503775 
9060.0 -11162121.89716326 6735521.026350924 16703012.95293321 2507.358424656204 -244.36649150086532 1252.1674542870048 
9120.0 -10963460.33455237 6686888.673378866 16810151.46613796 2513.460421223432 -263.14876605077546 1232.614353544528 
9180.0 -10763991.15032959 6637743.449898117 16915512.27743613 2519.3727276814107 -281.9103427098916 1212.964118547706 
9240.0 -10563729.548808841 6588089.153542469 17019087.78211494 2525.0948720751317 -300.649783864384 1193.21825338878 
9300.0 -10362690.787318511 6537929.618673467 17120870.51115309 2530.626396911587 -319.36565396278223 1173.378269865226 
9360.0 -10160890.17505632 6487268.716075367 17220853.13165658 2535.96685920119 -338.0565196251339 1153.445687363446 
9420.0 -9958343.071942102 6436110.352648058 17319028.447284598 2541.115830498125 -356.7209497519107 1133.422032741732 
9480.0 -9755064.887468958 6384458.4710977785 17415389.39866547 2546.072896939616 -375.35751563257554 1113.308840212532 
9540.0 -9551071.079552906 6332317.049626117 17509929.06380242 2550.837659284076 -393.9647910539418 1093.1076512240688 
9600.0 -9346377.153381111 6279690.101616868 17602640.658469282 2555.409732948188 -412.5413524081535 1072.8200143412741 
9660.0 -9140998.660258304 6226581.675320946 17693517.5365965 2559.788748042869 -431.0857788004177 1052.447485126037 
9720.0 -8934951.196452174 6172995.853539451 17782553.1906469 2563.974349408132 -449.5966521563967 1031.991626016827 
9780.0 -8728250.402037509 6118936.753304847 17869741.2519814 2567.966196646826 -468.0725573292626 1011.4540062076788 
